1 41884U 16078A   17034.55534260  .00002143  00000-0  11890-3 0  9994
2 41884  34.9562 133.6698 0016285 234.3399 125.5793 15.13361769  7581
1 41885U 16078B   17034.60874585  .00000681  00000-0  38620-4 0  9994
2 41885  34.9517 133.1372 0014839 233.5866 126.3465 15.13719957  7591
1 41886U 16078C   17034.54795995  .00002181  00000-0  12024-3 0  9991
2 41886  34.9586 133.6193 0015094 233.2139 126.7193 15.13587088  7587
1 41887U 16078D   17034.29437779  .00002268  00000-0  12601-3 0  9994
2 41887  34.9528 135.3187 0016236 232.1044 127.8258 15.13272773  7540
1 41888U 16078E   17033.43132911  .00002151  00000-0  11910-3 0  9993
2 41888  34.9497 140.5818 0015396 223.9441 136.0046 15.13435775  7405
1 41889U 16078F   17034.53840171  .00002264  00000-0  12383-3 0  9990
2 41889  34.9577 133.5383 0014001 231.1721 128.7752 15.13864852  7570
1 41890U 16078G   17034.53579819  .00000725  00000-0  40794-4 0  9998
2 41890  34.9551 133.4985 0013940 232.2915 127.6533 15.13931657  7572
1 41891U 16078H   17033.74175811 +.00001331 +00000-0 +73250-4 0  9992
2 41891 034.9559 138.3946 0013373 225.4903 134.4714 15.14014058007455
